NORAD_CAT_ID,OBJECT_NAME,OBJECT_TYPE,EPOCH,MEAN_MOTION,ECCENTRICITY,INCLINATION,RA_OF_ASC_NODE,ARG_OF_PERICENTER,MEAN_ANOMALY,BSTAR,MEAN_MOTION_DOT,MEAN_MOTION_DDOT,TLE_LINE0,TLE_LINE1,TLE_LINE2,SEMIMAJOR_AXIS,PERIOD,APOGEE,PERIGEE,DECAYED
54766.0,STARLINK-5471,PAYLOAD,2023-10-12 18:43:31,15.08871789,0.0001528,53.2191,29.6923,76.1431,283.9731,0.0018578,0.00029428,0.0,0 STARLINK-5471,1 54766U 22175J   23285.78023077  .00029428  00000-0  18578-2 0  9995,2 54766  53.2191  29.6923 0001528  76.1431 283.9731 15.08871789 45073,6917.783,95.436,540.705,538.591,0.0
54766.0,STARLINK-5471,PAYLOAD,2023-10-13 12:12:46,15.08864085,0.0001434,53.2185,26.4228,87.441,272.6746,0.0022797,0.00036204,0.0,0 STARLINK-5471,1 54766U 22175J   23286.50887334  .00036204  00000-0  22797-2 0  9998,2 54766  53.2185  26.4228 0001434  87.4410 272.6746 15.08864085 45181,6917.807,95.436,540.664,538.68,0.0
54766.0,STARLINK-5471,PAYLOAD,2023-10-13 13:48:09,15.08871353,0.0001441,53.2185,26.1255,86.326,273.7897,0.0026048,0.00041447,0.0,0 STARLINK-5471,1 54766U 22175J   23286.57511232  .00041447  00000-0  26048-2 0  9994,2 54766  53.2185  26.1255 0001441  86.3260 273.7897 15.08871353 47353,6917.785,95.436,540.646,538.653,0.0
54766.0,STARLINK-5471,PAYLOAD,2023-10-13 23:20:28,15.08870578,0.0001213,53.2188,24.3411,70.7746,289.3377,0.0021751,0.00034528,0.0,0 STARLINK-5471,1 54766U 22175J   23286.97255033  .00034528  00000-0  21751-2 0  9990,2 54766  53.2188  24.3411 0001213  70.7746 289.3377 15.08870578 45254,6917.787,95.436,540.491,538.813,0.0
54766.0,STARLINK-5471,PAYLOAD,2023-10-14 10:28:10,15.08863334,0.0001216,53.2185,22.2603,96.7858,263.3273,0.0018499,0.00029295,0.0,0 STARLINK-5471,1 54766U 22175J   23287.43622815  .00029295  00000-0  18499-2 0  9998,2 54766  53.2185  22.2603 0001216  96.7858 263.3273 15.08863334 45323,6917.809,95.436,540.515,538.833,0.0
54766.0,STARLINK-5471,PAYLOAD,2023-10-14 13:38:56,15.08869433,0.0001263,53.2182,21.6656,100.1439,259.9696,0.0025734,0.00040939,0.0,0 STARLINK-5471,1 54766U 22175J   23287.56870718  .00040939  00000-0  25734-2 0  9997,2 54766  53.2182  21.6656 0001263 100.1439 259.9696 15.08869433 47506,6917.79,95.436,540.529,538.782,0.0
54766.0,STARLINK-5471,PAYLOAD,2023-10-14 23:11:15,15.08863169,0.0001336,53.2186,19.8812,76.5581,283.556,0.0014459,0.00022813,0.0,0 STARLINK-5471,1 54766U 22175J   23287.96614735  .00022813  00000-0  14459-2 0  9999,2 54766  53.2186  19.8812 0001336  76.5581 283.5560 15.08863169 45408,6917.81,95.436,540.599,538.75,0.0
54766.0,STARLINK-5471,PAYLOAD,2023-10-15 11:54:21,15.08818674,0.0001197,53.2175,17.5025,68.7633,291.3487,0.0014554,0.00022937,0.0,0 STARLINK-5471,1 54766U 22175J   23288.49607995  .00022937  00000-0  14554-2 0  9991,2 54766  53.2175  17.5025 0001197  68.7633 291.3487 15.08818674 45487,6917.946,95.439,540.639,538.982,0.0
54766.0,STARLINK-5471,PAYLOAD,2023-10-15 13:29:44,15.08819674,0.0001196,53.2174,17.2052,66.6297,293.4821,0.0019865,0.00031451,0.0,0 STARLINK-5471,1 54766U 22175J   23288.56232188  .00031451  00000-0  19865-2 0  9998,2 54766  53.2174  17.2052 0001196  66.6297 293.4821 15.08819674 47652,6917.943,95.439,540.635,538.98,0.0
54766.0,STARLINK-5471,PAYLOAD,2023-10-15 15:05:07,15.08822233,0.0001289,53.2174,16.9079,68.1311,291.9818,0.0022207,0.00035214,0.0,0 STARLINK-5471,1 54766U 22175J   23288.62856349  .00035214  00000-0  22207-2 0  9991,2 54766  53.2174  16.9079 0001289  68.1311 291.9818 15.08822233 47669,6917.935,95.439,540.691,538.908,0.0
54766.0,STARLINK-5471,PAYLOAD,2023-10-16 13:20:31,15.08866689,0.00014,53.2167,12.7462,66.9303,293.1837,0.0017963,0.00028437,0.0,0 STARLINK-5471,1 54766U 22175J   23289.55592202  .00028437  00000-0  17963-2 0  9991,2 54766  53.2167  12.7462 0001400  66.9303 293.1837 15.08866689 47807,6917.799,95.436,540.632,538.695,0.0
54766.0,STARLINK-5471,PAYLOAD,2023-10-16 14:55:54,15.08871718,0.0001428,53.2169,12.4484,66.3467,293.7675,0.0018884,0.0002992,0.0,0 STARLINK-5471,1 54766U 22175J   23289.62216057  .00029920  00000-0  18884-2 0  9991,2 54766  53.2169  12.4484 0001428  66.3467 293.7675 15.08871718 45651,6917.783,95.436,540.636,538.661,0.0
54766.0,STARLINK-5471,PAYLOAD,2023-10-17 11:35:55,15.08846002,0.0002162,53.2176,8.5794,133.015,227.1023,0.00099907,0.00015651,0.0,0 STARLINK-5471,1 54766U 22175J   23290.48327968  .00015651  00000-0  99907-3 0  9993,2 54766  53.2176   8.5794 0002162 133.0150 227.1023 15.08846002 45786,6917.862,95.437,541.223,538.231,0.0
54766.0,STARLINK-5471,PAYLOAD,2023-10-17 22:43:37,15.08848657,0.0001558,53.2165,6.5018,76.0319,284.0847,0.00097191,0.00015217,0.0,0 STARLINK-5471,1 54766U 22175J   23290.94696348  .00015217  00000-0  97191-3 0  9996,2 54766  53.2165   6.5018 0001558  76.0319 284.0847 15.08848657 48015,6917.854,95.437,540.797,538.641,0.0
54766.0,STARLINK-5471,PAYLOAD,2023-10-18 11:26:42,15.08845439,0.0001531,53.2163,4.1212,92.0248,268.0919,0.00039485,6.003e-05,0.0,0 STARLINK-5471,1 54766U 22175J   23291.47688237  .00006003  00000-0  39485-3 0  9998,2 54766  53.2163   4.1212 0001531  92.0248 268.0919 15.08845439 45938,6917.864,95.437,540.788,538.67,0.0
54766.0,STARLINK-5471,PAYLOAD,2023-10-18 14:37:28,15.08852283,0.0001638,53.2167,3.5258,93.7012,266.4167,0.00052793,8.127e-05,0.0,0 STARLINK-5471,1 54766U 22175J   23291.60936073  .00008127  00000-0  52793-3 0  9993,2 54766  53.2167   3.5258 0001638  93.7012 266.4167 15.08852283 48115,6917.843,95.437,540.841,538.575,0.0
54766.0,STARLINK-5471,PAYLOAD,2023-10-19 11:17:29,15.08856122,0.0001687,53.2184,359.6569,100.715,259.4032,0.00036796,5.575e-05,0.0,0 STARLINK-5471,1 54766U 22175J   23292.47047570  .00005575  00000-0  36796-3 0  9993,2 54766  53.2184 359.6569 0001687 100.7150 259.4032 15.08856122 48243,6917.831,95.437,540.863,538.529,0.0
54766.0,STARLINK-5471,PAYLOAD,2023-10-19 14:28:15,15.08858681,0.0001727,53.2185,359.0618,104.0627,256.0558,0.00046295,7.091e-05,0.0,0 STARLINK-5471,1 54766U 22175J   23292.60295395  .00007091  00000-0  46295-3 0  9998,2 54766  53.2185 359.0618 0001727 104.0627 256.0558 15.08858681 46105,6917.823,95.436,540.883,538.494,0.0
54766.0,STARLINK-5471,PAYLOAD,2023-10-20 04:46:43,15.08837588,0.0001821,53.2181,356.386,107.6247,252.4944,-6.239e-05,-1.281e-05,0.0,0 STARLINK-5471,1 54766U 22175J   23293.19911999 -.00001281  00000-0 -62390-4 0  9990,2 54766  53.2181 356.3860 0001821 107.6247 252.4944 15.08837588 46193,6917.888,95.438,541.013,538.493,0.0
54766.0,STARLINK-5471,PAYLOAD,2023-10-20 09:32:53,15.08838796,0.0001682,53.2181,355.4941,109.2269,250.8905,-4.0081e-06,-3.52e-06,0.0,0 STARLINK-5471,1 54766U 22175J   23293.39784054 -.00000352  00000-0 -40081-5 0  9994,2 54766  53.2181 355.4941 0001682 109.2269 250.8905 15.08838796 48384,6917.884,95.438,540.913,538.585,0.0
54766.0,STARLINK-5471,PAYLOAD,2023-10-21 10:59:03,15.08847025,0.0001442,53.2182,350.7434,98.9896,261.1259,0.00041486,6.322e-05,0.0,0 STARLINK-5471,1 54766U 22175J   23294.45768368  .00006322  00000-0  41486-3 0  9991,2 54766  53.2182 350.7434 0001442  98.9896 261.1259 15.08847025 46384,6917.859,95.437,540.721,538.726,0.0
54766.0,STARLINK-5471,PAYLOAD,2023-10-21 20:31:22,15.08838684,0.0001324,53.2174,348.956,89.8533,270.261,0.00030177,4.518e-05,0.0,0 STARLINK-5471,1 54766U 22175J   23294.85512637  .00004518  00000-0  30177-3 0  9991,2 54766  53.2174 348.9560 0001324  89.8533 270.2610 15.08838684 46440,6917.884,95.438,540.665,538.833,0.0
54766.0,STARLINK-5471,PAYLOAD,2023-10-22 10:49:51,15.0883892,0.000147,53.2189,346.2839,103.2294,256.8863,0.00015974,2.255e-05,0.0,0 STARLINK-5471,1 54766U 22175J   23295.45128859  .00002255  00000-0  15974-3 0  9991,2 54766  53.2189 346.2839 0001470 103.2294 256.8863 15.08838920 48695,6917.884,95.438,540.766,538.732,0.0
54766.0,STARLINK-5471,PAYLOAD,2023-10-22 20:22:10,15.08839342,0.0001236,53.2174,344.4972,94.5108,265.6025,0.00013495,1.86e-05,0.0,0 STARLINK-5471,1 54766U 22175J   23295.84872858  .00001860  00000-0  13495-3 0  9996,2 54766  53.2174 344.4972 0001236  94.5108 265.6025 15.08839342 46597,6917.882,95.438,540.602,538.892,0.0
54766.0,STARLINK-5471,PAYLOAD,2023-10-23 20:12:57,15.08839283,0.0001557,53.2177,340.0365,91.5694,268.5476,0.00012648,1.725e-05,0.0,0 STARLINK-5471,1 54766U 22175J   23296.84233195  .00001725  00000-0  12648-3 0  9991,2 54766  53.2177 340.0365 0001557  91.5694 268.5476 15.08839283 48904,6917.883,95.438,540.825,538.67,0.0
54766.0,STARLINK-5471,PAYLOAD,2023-10-24 02:34:30,15.08839434,0.0001555,53.2178,338.8469,93.0311,267.0859,0.00018217,2.612e-05,0.0,0 STARLINK-5471,1 54766U 22175J   23297.10729296  .00002612  00000-0  18217-3 0  9997,2 54766  53.2178 338.8469 0001555  93.0311 267.0859 15.08839434 46787,6917.882,95.438,540.823,538.671,0.0
54766.0,STARLINK-5471,PAYLOAD,2023-10-24 10:31:25,15.08843857,0.0001557,53.2171,337.3604,95.655,264.462,0.00020338,2.951e-05,0.0,0 STARLINK-5471,1 54766U 22175J   23297.43849155  .00002951  00000-0  20338-3 0  9993,2 54766  53.2171 337.3604 0001557  95.6550 264.4620 15.08843857 48996,6917.869,95.437,540.811,538.656,0.0
54766.0,STARLINK-5471,PAYLOAD,2023-10-25 19:54:31,15.08847102,0.0001555,53.2169,331.1151,89.6968,270.4202,0.00018896,2.721e-05,0.0,0 STARLINK-5471,1 54766U 22175J   23298.82953041  .00002721  00000-0  18896-3 0  9998,2 54766  53.2169 331.1151 0001555  89.6968 270.4202 15.08847102 47041,6917.859,95.437,540.799,538.648,0.0
54766.0,STARLINK-5471,PAYLOAD,2023-10-26 11:48:22,15.08849867,0.0001684,53.2166,328.1409,91.4605,268.658,0.00018553,2.667e-05,0.0,0 STARLINK-5471,1 54766U 22175J   23299.49192780  .00002667  00000-0  18553-3 0  9996,2 54766  53.2166 328.1409 0001684  91.4605 268.6580 15.08849867 49301,6917.85,95.437,540.88,538.55,0.0
54766.0,STARLINK-5471,PAYLOAD,2023-10-27 05:17:37,15.08839309,0.0001609,53.2163,324.8701,93.1065,267.0111,0.00036778,5.57e-05,0.0,0 STARLINK-5471,1 54766U 22175J   23300.22057262  .00005570  00000-0  36778-3 0  9990,2 54766  53.2163 324.8701 0001609  93.1065 267.0111 15.08839309 47257,6917.883,95.438,540.861,538.634,0.0
